{"type":"FeatureCollection","features":[{"type":"Feature","properties":{},"geometry":{"type":"Polygon","coordinates":[[[-79.520072,8.916944],[-79.52183,8.917356],[-79.522526,8.917519],[-79.522927,8.916665],[-79.523047,8.916712],[-79.523384,8.916854],[-79.52367,8.916927],[-79.523922,8.917033],[-79.524273,8.917091],[-79.524344,8.917068],[-79.524595,8.917123],[-79.524785,8.917149],[-79.52484,8.917159],[-79.52486,8.917163],[-79.524885,8.917168],[-79.524944,8.916976],[-79.525023,8.916987],[-79.525015,8.917036],[-79.525373,8.917167],[-79.525376,8.917261],[-79.525628,8.917416],[-79.525801,8.917439],[-79.525908,8.917378],[-79.526253,8.917484],[-79.526419,8.917579],[-79.526548,8.917593],[-79.526868,8.917649],[-79.527236,8.917621],[-79.527692,8.917619],[-79.527747,8.917776],[-79.52776,8.918333],[-79.527829,8.918385],[-79.527865,8.918381],[-79.527924,8.918372],[-79.527911,8.917603],[-79.527969,8.917568],[-79.527961,8.917223],[-79.528116,8.917217],[-79.528134,8.917558],[-79.52812,8.917778],[-79.528237,8.917904],[-79.528391,8.917952],[-79.528309,8.917803],[-79.528298,8.917594],[-79.528188,8.915831],[-79.528761,8.915683],[-79.529236,8.91543],[-79.529346,8.915429],[-79.529733,8.915428],[-79.530045,8.915507],[-79.530507,8.915615],[-79.531166,8.915822],[-79.531675,8.91619],[-79.532053,8.916524],[-79.532474,8.917029],[-79.532617,8.917086],[-79.532635,8.917067],[-79.532949,8.917318],[-79.532985,8.917353],[-79.53337,8.917731],[-79.533446,8.917968],[-79.53355,8.918085],[-79.53379,8.918161],[-79.534059,8.918315],[-79.534621,8.918882],[-79.535015,8.919346],[-79.535185,8.91958],[-79.535477,8.920081],[-79.53578,8.920456],[-79.536336,8.920839],[-79.536721,8.921196],[-79.538328,8.923124],[-79.538431,8.923397],[-79.538418,8.923728],[-79.538524,8.923896],[-79.538674,8.923991],[-79.539001,8.924069],[-79.539422,8.924473],[-79.540655,8.926082],[-79.540855,8.926534],[-79.540828,8.926802],[-79.54089,8.926985],[-79.541037,8.92716],[-79.541547,8.927353],[-79.542126,8.928076],[-79.543243,8.929515],[-79.543396,8.929791],[-79.543404,8.930056],[-79.543514,8.9302],[-79.543697,8.930488],[-79.543775,8.930777],[-79.543797,8.930938],[-79.543872,8.931269],[-79.544163,8.932395],[-79.544232,8.932566],[-79.544441,8.932875],[-79.544589,8.933216],[-79.544717,8.933355],[-79.544848,8.933571],[-79.544918,8.933834],[-79.54495,8.933998],[-79.544979,8.934375],[-79.544959,8.93485],[-79.544917,8.935417],[-79.54447,8.936075],[-79.544437,8.936187],[-79.544371,8.936268],[-79.54411,8.936252],[-79.543876,8.936252],[-79.543719,8.936288],[-79.543595,8.936293],[-79.54349,8.936257],[-79.543232,8.936257],[-79.543211,8.936537],[-79.54321,8.936698],[-79.543215,8.936802],[-79.543238,8.936918],[-79.543214,8.937161],[-79.543172,8.937309],[-79.543145,8.937427],[-79.543108,8.937636],[-79.542986,8.938003],[-79.54292,8.938146],[-79.542774,8.93843],[-79.542676,8.938597],[-79.5424,8.938626],[-79.542171,8.938632],[-79.542031,8.938702],[-79.541731,8.938714],[-79.54165,8.938673],[-79.54158,8.938681],[-79.541545,8.938728],[-79.540796,8.938774],[-79.540796,8.938747],[-79.540779,8.938747],[-79.540776,8.938566],[-79.540652,8.938573],[-79.540571,8.938577],[-79.540563,8.938423],[-79.538467,8.938424],[-79.538309,8.93865],[-79.537967,8.938867],[-79.537728,8.938933],[-79.537535,8.938955],[-79.537493,8.939107],[-79.537561,8.939254],[-79.537828,8.939354],[-79.539847,8.93932],[-79.539912,8.93924],[-79.541347,8.939236],[-79.541542,8.939248],[-79.541583,8.93929],[-79.544527,8.93924],[-79.544708,8.939385],[-79.54477,8.939772],[-79.544848,8.940251],[-79.544833,8.94046],[-79.544912,8.940721],[-79.545017,8.941268],[-79.54505,8.941662],[-79.545012,8.941959],[-79.544924,8.942159],[-79.544869,8.942287],[-79.544759,8.94263],[-79.544748,8.942853],[-79.544829,8.94302],[-79.545202,8.94343],[-79.545385,8.943554],[-79.545493,8.943579],[-79.545814,8.943529],[-79.545988,8.943388],[-79.54601,8.943261],[-79.54595,8.942706],[-79.545975,8.942661],[-79.546782,8.942619],[-79.547142,8.942589],[-79.54771,8.942547],[-79.54816,8.942715],[-79.548695,8.943006],[-79.549193,8.943192],[-79.54961,8.943265],[-79.549934,8.943354],[-79.550203,8.943505],[-79.550377,8.943545],[-79.550427,8.943695],[-79.550473,8.943818],[-79.550706,8.944022],[-79.551077,8.944169],[-79.551334,8.944163],[-79.551557,8.944305],[-79.551773,8.944231],[-79.551935,8.9441],[-79.552131,8.944013],[-79.552221,8.944021],[-79.552274,8.944125],[-79.552277,8.94438],[-79.552475,8.944448],[-79.552713,8.944524],[-79.552752,8.944709],[-79.552713,8.944875],[-79.552613,8.945098],[-79.552537,8.945214],[-79.552369,8.945421],[-79.552399,8.945457],[-79.552683,8.945369],[-79.552631,8.945487],[-79.55262,8.945653],[-79.552536,8.945778],[-79.552571,8.945865],[-79.552699,8.946024],[-79.552934,8.946207],[-79.553139,8.946324],[-79.553091,8.946413],[-79.552994,8.946469],[-79.552777,8.946441],[-79.552424,8.94642],[-79.552207,8.946309],[-79.552062,8.946246],[-79.551963,8.946012],[-79.551898,8.945887],[-79.551812,8.945851],[-79.551725,8.945718],[-79.551602,8.945642],[-79.551516,8.945424],[-79.551402,8.945258],[-79.55118,8.944995],[-79.551022,8.944822],[-79.550944,8.945095],[-79.55116,8.945411],[-79.551109,8.945425],[-79.55092,8.945293],[-79.550301,8.944894],[-79.550011,8.944719],[-79.549592,8.944576],[-79.549297,8.944528],[-79.549106,8.944647],[-79.548819,8.944821],[-79.548744,8.944866],[-79.548478,8.945055],[-79.548492,8.945076],[-79.54842,8.945181],[-79.548416,8.945187],[-79.548345,8.945187],[-79.548279,8.945241],[-79.548189,8.945203],[-79.548165,8.945229],[-79.548158,8.945236],[-79.548141,8.945254],[-79.548198,8.94532],[-79.548089,8.945447],[-79.547951,8.945661],[-79.547838,8.945773],[-79.547671,8.945969],[-79.547517,8.946088],[-79.547352,8.946199],[-79.547236,8.946269],[-79.546946,8.946385],[-79.546741,8.94644],[-79.546583,8.94645],[-79.546479,8.946424],[-79.546414,8.946288],[-79.546356,8.946104],[-79.546271,8.945953],[-79.546208,8.94581],[-79.546167,8.945631],[-79.546171,8.945515],[-79.546108,8.945437],[-79.546024,8.945404],[-79.545748,8.945404],[-79.545655,8.945431],[-79.545625,8.945595],[-79.545604,8.945656],[-79.545588,8.945724],[-79.545552,8.946157],[-79.545536,8.946278],[-79.545502,8.946379],[-79.545424,8.946538],[-79.545389,8.94664],[-79.545442,8.946983],[-79.54527,8.947059],[-79.545094,8.947104],[-79.545015,8.947109],[-79.544999,8.947032],[-79.544952,8.946824],[-79.544861,8.946844],[-79.544908,8.947058],[-79.544921,8.947117],[-79.544745,8.947162],[-79.544368,8.947259],[-79.544098,8.947344],[-79.543954,8.947369],[-79.543614,8.947398],[-79.543523,8.947412],[-79.543521,8.947381],[-79.543515,8.947357],[-79.543508,8.947342],[-79.543491,8.947313],[-79.543472,8.94729],[-79.543446,8.94727],[-79.543422,8.947256],[-79.543392,8.947245],[-79.543368,8.947241],[-79.543345,8.947238],[-79.543318,8.947242],[-79.543292,8.947249],[-79.543272,8.947256],[-79.543248,8.947269],[-79.543224,8.947287],[-79.543207,8.947307],[-79.543195,8.947324],[-79.543186,8.947346],[-79.543178,8.947379],[-79.543137,8.94735],[-79.543112,8.947338],[-79.543076,8.947334],[-79.543048,8.94734],[-79.543021,8.94735],[-79.542991,8.947367],[-79.54297,8.947387],[-79.542955,8.947411],[-79.542945,8.947441],[-79.542942,8.947469],[-79.542947,8.947499],[-79.542954,8.947521],[-79.542969,8.947548],[-79.542888,8.947567],[-79.542854,8.947574],[-79.542751,8.947597],[-79.5427,8.947622],[-79.542561,8.947686],[-79.542357,8.947773],[-79.542239,8.947818],[-79.542077,8.947888],[-79.54198,8.947927],[-79.541874,8.947962],[-79.541637,8.948039],[-79.541425,8.9481],[-79.541253,8.948139],[-79.541042,8.948167],[-79.540905,8.948218],[-79.540635,8.948341],[-79.540562,8.948364],[-79.540577,8.948396],[-79.540497,8.948424],[-79.540397,8.948443],[-79.540281,8.948461],[-79.540122,8.948452],[-79.540002,8.948443],[-79.539808,8.94839],[-79.539437,8.948261],[-79.538807,8.947978],[-79.538243,8.947719],[-79.537822,8.947529],[-79.53758,8.94742],[-79.537295,8.947304],[-79.537212,8.947307],[-79.537137,8.947332],[-79.537032,8.947381],[-79.536973,8.947441],[-79.536872,8.947682],[-79.536851,8.947749],[-79.536844,8.947797],[-79.536846,8.947849],[-79.536943,8.948113],[-79.536972,8.948153],[-79.537025,8.948202],[-79.537186,8.948345],[-79.537577,8.948493],[-79.538053,8.948479],[-79.538573,8.948707],[-79.538579,8.949856],[-79.538599,8.949858],[-79.538606,8.950316],[-79.53844,8.950439],[-79.538426,8.950453],[-79.538415,8.950491],[-79.538047,8.95051],[-79.537976,8.950513],[-79.537976,8.950518],[-79.537974,8.950575],[-79.5379,8.950741],[-79.537866,8.950753],[-79.537795,8.950785],[-79.53768,8.950797],[-79.537607,8.950804],[-79.537352,8.950828],[-79.53734,8.9509],[-79.537233,8.950863],[-79.537164,8.950831],[-79.53708,8.950822],[-79.537092,8.950733],[-79.53688,8.95074],[-79.536762,8.950824],[-79.536612,8.950885],[-79.536449,8.95093],[-79.536094,8.9509],[-79.535978,8.950845],[-79.535935,8.950807],[-79.535866,8.950683],[-79.535678,8.950702],[-79.535593,8.95066],[-79.535483,8.950514],[-79.53518,8.950403],[-79.535014,8.950515],[-79.534908,8.950515],[-79.534759,8.950533],[-79.534638,8.950567],[-79.534586,8.950563],[-79.534528,8.95057],[-79.534449,8.950578],[-79.534376,8.950587],[-79.5343,8.950618],[-79.534193,8.950675],[-79.534,8.950743],[-79.533764,8.950759],[-79.533537,8.950778],[-79.533308,8.950804],[-79.533082,8.95082],[-79.532917,8.950819],[-79.53275,8.950806],[-79.5327,8.950625],[-79.532565,8.950465],[-79.532359,8.950113],[-79.532344,8.950001],[-79.53239,8.949876],[-79.532329,8.949839],[-79.532289,8.949711],[-79.532148,8.949321],[-79.532133,8.949293],[-79.532115,8.949271],[-79.532087,8.949246],[-79.532059,8.949232],[-79.532023,8.949224],[-79.531986,8.949225],[-79.531949,8.949235],[-79.531929,8.949246],[-79.531912,8.949256],[-79.531877,8.949298],[-79.531732,8.949619],[-79.531624,8.949912],[-79.531464,8.950313],[-79.531652,8.95062],[-79.5316,8.950837],[-79.531582,8.95099],[-79.531563,8.951064],[-79.531559,8.951152],[-79.531554,8.951232],[-79.531546,8.951298],[-79.531568,8.951369],[-79.531673,8.951368],[-79.531658,8.951522],[-79.531655,8.951785],[-79.531678,8.951855],[-79.531851,8.951922],[-79.531935,8.951937],[-79.532132,8.952025],[-79.532163,8.952044],[-79.532169,8.95207],[-79.532231,8.952096],[-79.532272,8.952157],[-79.532331,8.952316],[-79.532432,8.952422],[-79.532372,8.952991],[-79.532122,8.952971],[-79.532096,8.953261],[-79.532235,8.953271],[-79.532413,8.953286],[-79.532505,8.953429],[-79.532545,8.953562],[-79.532576,8.953672],[-79.532589,8.953714],[-79.532604,8.953759],[-79.532605,8.953893],[-79.532604,8.954005],[-79.53261,8.954034],[-79.532642,8.954037],[-79.532637,8.954184],[-79.533027,8.954204],[-79.533032,8.954287],[-79.533026,8.954365],[-79.533046,8.954376],[-79.533055,8.954366],[-79.533114,8.954394],[-79.533175,8.954409],[-79.533187,8.95438],[-79.533212,8.954365],[-79.533273,8.95437],[-79.53336,8.954355],[-79.533436,8.954301],[-79.533519,8.954252],[-79.533542,8.954222],[-79.533557,8.95416],[-79.533685,8.954089],[-79.533723,8.954068],[-79.533762,8.954072],[-79.533759,8.95419],[-79.533986,8.954196],[-79.534119,8.954199],[-79.53415,8.954229],[-79.534148,8.954364],[-79.534214,8.954365],[-79.534285,8.954366],[-79.534286,8.954285],[-79.534288,8.954192],[-79.534289,8.95417],[-79.534372,8.954148],[-79.534462,8.954126],[-79.534555,8.954104],[-79.534602,8.954093],[-79.534616,8.954092],[-79.534648,8.954087],[-79.534709,8.954078],[-79.534819,8.954066],[-79.534893,8.954133],[-79.53489,8.954174],[-79.534965,8.954182],[-79.535108,8.954194],[-79.535454,8.954085],[-79.535491,8.954203],[-79.535759,8.954138],[-79.535762,8.954147],[-79.535864,8.954139],[-79.535938,8.954231],[-79.535894,8.955468],[-79.535913,8.955515],[-79.535943,8.955593],[-79.536187,8.956239],[-79.536194,8.956338],[-79.536184,8.956453],[-79.536146,8.956552],[-79.536104,8.956613],[-79.536065,8.956651],[-79.53597,8.956714],[-79.53586,8.956743],[-79.535678,8.956742],[-79.535371,8.956726],[-79.534935,8.956695],[-79.534537,8.956652],[-79.534146,8.956588],[-79.533881,8.956565],[-79.53345,8.956568],[-79.533197,8.956569],[-79.533117,8.956588],[-79.533014,8.956696],[-79.532957,8.957022],[-79.532938,8.957149],[-79.532908,8.957627],[-79.532908,8.957894],[-79.532917,8.958095],[-79.532939,8.95833],[-79.532968,8.958565],[-79.532986,8.958605],[-79.53303,8.958628],[-79.533073,8.958627],[-79.533109,8.958602],[-79.533127,8.958574],[-79.533134,8.958541],[-79.533126,8.958487],[-79.533156,8.958481],[-79.533149,8.958393],[-79.533141,8.958211],[-79.533163,8.958088],[-79.533204,8.957981],[-79.533272,8.957785],[-79.533381,8.957628],[-79.533527,8.957467],[-79.533631,8.957387],[-79.533786,8.957315],[-79.533948,8.957261],[-79.534142,8.957249],[-79.535226,8.957331],[-79.535428,8.957373],[-79.535594,8.957418],[-79.535719,8.957455],[-79.535909,8.957558],[-79.536062,8.957667],[-79.536203,8.957788],[-79.536297,8.957916],[-79.536474,8.958173],[-79.536557,8.95832],[-79.536511,8.958424],[-79.536493,8.958494],[-79.536477,8.958577],[-79.536443,8.958569],[-79.536196,8.958511],[-79.536162,8.958653],[-79.536156,8.95868],[-79.53615,8.958705],[-79.536141,8.958743],[-79.53619,8.958754],[-79.536228,8.958763],[-79.53621,8.958837],[-79.536201,8.958886],[-79.536154,8.959076],[-79.536124,8.959192],[-79.535998,8.959531],[-79.535958,8.959641],[-79.53589,8.95983],[-79.535831,8.959959],[-79.535732,8.960078],[-79.535669,8.960155],[-79.535533,8.96029],[-79.535459,8.960352],[-79.5353,8.960441],[-79.535007,8.96053],[-79.534849,8.960554],[-79.534709,8.960557],[-79.53457,8.960539],[-79.53444,8.960505],[-79.534339,8.960472],[-79.534305,8.960463],[-79.534289,8.960506],[-79.534031,8.960405],[-79.533765,8.960321],[-79.533754,8.960317],[-79.533559,8.960382],[-79.533489,8.960429],[-79.533384,8.960571],[-79.533361,8.960628],[-79.533341,8.960742],[-79.533339,8.960829],[-79.533361,8.960905],[-79.533408,8.961001],[-79.533585,8.961365],[-79.533672,8.961539],[-79.533776,8.961752],[-79.53412,8.962462],[-79.534243,8.962719],[-79.534381,8.963027],[-79.534409,8.963157],[-79.534422,8.963318],[-79.534406,8.963546],[-79.534358,8.963746],[-79.53432,8.963813],[-79.5342,8.964026],[-79.5341,8.964187],[-79.53399,8.96433],[-79.533851,8.964503],[-79.533712,8.964653],[-79.533477,8.964919],[-79.533208,8.965203],[-79.533183,8.965229],[-79.533133,8.965284],[-79.532831,8.965636],[-79.532468,8.966046],[-79.532235,8.966311],[-79.532143,8.966417],[-79.532049,8.966524],[-79.532027,8.966545],[-79.531948,8.966618],[-79.531856,8.966666],[-79.53179,8.966689],[-79.531749,8.966692],[-79.531712,8.966694],[-79.531646,8.966695],[-79.53157,8.966685],[-79.531537,8.966674],[-79.531444,8.966662],[-79.531349,8.966682],[-79.531258,8.966712],[-79.531168,8.966768],[-79.531077,8.966884],[-79.531051,8.966949],[-79.531037,8.96701],[-79.53103,8.967075],[-79.531031,8.967136],[-79.531046,8.967222],[-79.531094,8.96731],[-79.531138,8.96742],[-79.531149,8.967535],[-79.531142,8.967599],[-79.531129,8.967654],[-79.531102,8.967721],[-79.531076,8.967763],[-79.529413,8.969776],[-79.529372,8.969805],[-79.529307,8.969816],[-79.52922,8.969763],[-79.528649,8.969299],[-79.52828,8.969035],[-79.528111,8.968957],[-79.527913,8.968897],[-79.527745,8.968876],[-79.527555,8.968884],[-79.527391,8.968917],[-79.526933,8.969119],[-79.52637,8.969394],[-79.526043,8.969617],[-79.525813,8.969826],[-79.525338,8.970356],[-79.525256,8.970372],[-79.525161,8.970432],[-79.525139,8.970516],[-79.525139,8.97064],[-79.525194,8.97074],[-79.525296,8.970806],[-79.525583,8.970704],[-79.525923,8.970561],[-79.526107,8.970491],[-79.526573,8.970326],[-79.526868,8.970235],[-79.527339,8.970183],[-79.527489,8.970214],[-79.527568,8.97026],[-79.527639,8.970366],[-79.527652,8.970368],[-79.527664,8.970361],[-79.528042,8.969814],[-79.528361,8.970021],[-79.528371,8.970027],[-79.528385,8.970034],[-79.528617,8.970193],[-79.528774,8.970347],[-79.528908,8.97048],[-79.528946,8.970506],[-79.528971,8.970541],[-79.529056,8.970662],[-79.52909,8.970711],[-79.528993,8.97089],[-79.528919,8.970923],[-79.528801,8.970976],[-79.528492,8.97119],[-79.528436,8.971285],[-79.528402,8.971269],[-79.528398,8.971274],[-79.528394,8.971279],[-79.528376,8.971299],[-79.528097,8.971793],[-79.52809,8.971805],[-79.528085,8.971815],[-79.528042,8.971897],[-79.527822,8.972272],[-79.527752,8.972402],[-79.527725,8.972443],[-79.52766,8.972541],[-79.50501,8.9663],[-79.50501,8.9404],[-79.520072,8.916944]]]}},{"type":"Feature","properties":{},"geometry":{"type":"Polygon","coordinates":[[[-79.506797,8.972533],[-79.506931,8.972474],[-79.50709,8.97236],[-79.507178,8.972267],[-79.507265,8.972122],[-79.507341,8.971916],[-79.507356,8.971729],[-79.507333,8.971568],[-79.507067,8.970514],[-79.507037,8.970339],[-79.507036,8.97017],[-79.507053,8.970051],[-79.507091,8.96995],[-79.507142,8.969879],[-79.507198,8.96982],[-79.507384,8.969675],[-79.507466,8.969597],[-79.507529,8.969496],[-79.507582,8.969325],[-79.507601,8.969239],[-79.507606,8.969153],[-79.507597,8.969028],[-79.507577,8.96891],[-79.507541,8.968819],[-79.507487,8.968736],[-79.507343,8.968591],[-79.5073,8.968532],[-79.50727,8.968464],[-79.507256,8.968393],[-79.507254,8.968321],[-79.507271,8.96824],[-79.507297,8.96816],[-79.507363,8.968074],[-79.507439,8.967987],[-79.507488,8.967862],[-79.507525,8.967735],[-79.507536,8.967648],[-79.507541,8.967564],[-79.507523,8.967444],[-79.507477,8.967338],[-79.507422,8.967254],[-79.507361,8.967183],[-79.507203,8.967017],[-79.507122,8.966901],[-79.507049,8.966782],[-79.506979,8.9666],[-79.506921,8.966384],[-79.506865,8.966199],[-79.506812,8.96607],[-79.506716,8.965921],[-79.506619,8.965836],[-79.50648,8.965782],[-79.506349,8.965748],[-79.506193,8.965744],[-79.506021,8.965783],[-79.505896,8.965843],[-79.505793,8.965916],[-79.505718,8.966005],[-79.505651,8.96613],[-79.505603,8.966244],[-79.505568,8.966372],[-79.505603,8.966636],[-79.50563,8.96678],[-79.505633,8.966953],[-79.505633,8.966986],[-79.505618,8.967174],[-79.505517,8.967539],[-79.50551,8.967665],[-79.50552,8.967791],[-79.505542,8.967909],[-79.505583,8.968025],[-79.505647,8.968148],[-79.50568,8.9682],[-79.505723,8.96827],[-79.505888,8.968517],[-79.505918,8.968593],[-79.505944,8.968675],[-79.505961,8.968796],[-79.50596,8.9689],[-79.505949,8.968976],[-79.505923,8.969057],[-79.505594,8.969756],[-79.505534,8.970059],[-79.505503,8.970449],[-79.505501,8.970512],[-79.505493,8.970663],[-79.505541,8.971295],[-79.505562,8.971407],[-79.50559,8.971519],[-79.50571,8.971976],[-79.505757,8.972104],[-79.505824,8.972225],[-79.505908,8.972328],[-79.506037,8.972434],[-79.506174,8.972519],[-79.506282,8.972552],[-79.506389,8.972571],[-79.506554,8.972584],[-79.506652,8.972574],[-79.506797,8.972533]]]}},{"type":"Feature","properties":{},"geometry":{"type":"Polygon","coordinates":[[[-79.541608,8.961921],[-79.541609,8.961992],[-79.541341,8.961993],[-79.541309,8.962002],[-79.54128,8.962022],[-79.541224,8.962118],[-79.541161,8.962083],[-79.541203,8.962011],[-79.541214,8.96198],[-79.541215,8.961946],[-79.541207,8.961913],[-79.541161,8.961834],[-79.541224,8.961798],[-79.54127,8.961882],[-79.541299,8.961908],[-79.541338,8.961923],[-79.541608,8.961921]]]}},{"type":"Feature","properties":{},"geometry":{"type":"Polygon","coordinates":[[[-79.543649,8.962524],[-79.543484,8.962556],[-79.543492,8.962589],[-79.543516,8.962588],[-79.543539,8.9626],[-79.543551,8.962623],[-79.543599,8.962614],[-79.543603,8.962592],[-79.543622,8.962575],[-79.543652,8.962563],[-79.543664,8.962547],[-79.543676,8.962497],[-79.543671,8.962449],[-79.543657,8.962395],[-79.543616,8.962361],[-79.543581,8.962337],[-79.543566,8.962305],[-79.543565,8.96227],[-79.543542,8.962261],[-79.543539,8.962299],[-79.543533,8.962326],[-79.543529,8.962336],[-79.54356,8.962348],[-79.543591,8.962361],[-79.543621,8.962378],[-79.543649,8.962412],[-79.543661,8.962437],[-79.543666,8.962478],[-79.543661,8.962518],[-79.543649,8.962524]]]}},{"type":"Feature","properties":{},"geometry":{"type":"Polygon","coordinates":[[[-79.551532,8.955894],[-79.551524,8.955884],[-79.551535,8.955873],[-79.551526,8.955858],[-79.551474,8.955861],[-79.551462,8.955886],[-79.551475,8.955898],[-79.551511,8.955906],[-79.551532,8.955894]]]}}]}